[Satellite]
VERSION=1.1
NAME=GSAT0201 (PRN E18)
NICKNAME=GSAT0201 (PRN E18)
TLE1=1 40128U 14050A   19315.56457920 -.00000090  00000-0  00000+0 0  9991
TLE2=2 40128  50.5794  10.1082 1664261  92.3283 286.7677  1.85519575 35559
STATUS=0
